STARLINK-37023          
1 68076U 26042H   26084.64477513  .00162982  00000+0  10447-2 0  9993
2 68076  53.1579 115.0165 0001426  63.1222 296.9944 15.75289252  4606
STARLINK-37036          
1 68077U 26042J   26084.58165435  .00213709  00000+0  13585-2 0  9994
2 68077  53.1576 115.3344 0001242  99.6197 260.4964 15.75321041  4596
STARLINK-36973          
1 68078U 26042K   26084.68327051 -.00054964  00000+0 -27824-3 0  9990
2 68078  53.1578 114.5363 0000607 218.7020 141.3959 15.80754682  4615
STARLINK-37063          
1 68079U 26042L   26084.68400372  .00193133  00000+0  95706-3 0  9993
2 68079  53.1576 114.5409 0001603  71.9222 288.1975 15.80946645  4615
STARLINK-37051          
1 68080U 26042M   26084.83335647 -.00116377  00000+0 -76354-3 0  9999
2 68080  53.1599 113.8181 0001147  89.0629  27.9880 15.75296782  4646
STARLINK-37066          
1 68081U 26042N   26084.83335647 -.00102424  00000+0 -67113-3 0  9991
2 68081  53.1600 113.9739 0001088 102.2252 299.4527 15.75271620  4642
STARLINK-37054          
1 68082U 26042P   26084.80743712  .00283207  00000+0  13846-2 0  9995
2 68082  53.1574 113.8870 0001209  64.6520 295.4628 15.80987275  4635
STARLINK-37065          
1 68083U 26042Q   26084.57678589  .00198845  00000+0  12664-2 0  9999
2 68083  53.1586 115.3017 0001007  95.8939 264.2196 15.75322603  4596
STARLINK-37037          
1 68084U 26042R   26084.83335647 -.00107797  00000+0 -70699-3 0  9995
2 68084  53.1596 113.8151 0001160  84.3850  34.5496 15.75272090  4646
STARLINK-37068          
1 68085U 26042S   26084.80518664  .00344669  00000+0  16706-2 0  9992
2 68085  53.1577 113.8713 0001063 101.6453 258.4689 15.81008244  4639
STARLINK-37067          
1 68086U 26042T   26084.67800537  .00219906  00000+0  10859-2 0  9999
2 68086  53.1578 114.5000 0002460  48.4624 311.6609 15.80945343  4619
STARLINK-37062          
1 68087U 26042U   26084.80368972  .00390298  00000+0  18804-2 0  9999
2 68087  53.1577 113.8615 0001807  96.7950 263.3278 15.81018084  4636
