CCSDS_OMM_VERS = 2.0
CREATION_DATE  = 
ORIGINATOR     = 

OBJECT_NAME    = STARLINK-37023
OBJECT_ID      = 2026-042H
CENTER_NAME    = EARTH
REF_FRAME      = TEME
TIME_SYSTEM    = UTC
MEAN_ELEMENT_THEORY = SGP/SGP4

EPOCH          = 2026-03-25T15:28:28.571232
MEAN_MOTION    = 15.75289252
ECCENTRICITY   = .0001426
INCLINATION    = 53.1579
RA_OF_ASC_NODE = 115.0165
ARG_OF_PERICENTER = 63.1222
MEAN_ANOMALY   = 296.9944

EPHEMERIS_TYPE = 0
CLASSIFICATION_TYPE = U
NORAD_CAT_ID   = 68076
ELEMENT_SET_NO = 999
REV_AT_EPOCH   = 460
BSTAR          = .10447E-2
MEAN_MOTION_DOT = .162982E-2
MEAN_MOTION_DDOT = 0

CCSDS_OMM_VERS = 2.0
CREATION_DATE  = 
ORIGINATOR     = 

OBJECT_NAME    = STARLINK-37036
OBJECT_ID      = 2026-042J
CENTER_NAME    = EARTH
REF_FRAME      = TEME
TIME_SYSTEM    = UTC
MEAN_ELEMENT_THEORY = SGP/SGP4

EPOCH          = 2026-03-25T13:57:34.935840
MEAN_MOTION    = 15.75321041
ECCENTRICITY   = .0001242
INCLINATION    = 53.1576
RA_OF_ASC_NODE = 115.3344
ARG_OF_PERICENTER = 99.6197
MEAN_ANOMALY   = 260.4964

EPHEMERIS_TYPE = 0
CLASSIFICATION_TYPE = U
NORAD_CAT_ID   = 68077
ELEMENT_SET_NO = 999
REV_AT_EPOCH   = 459
BSTAR          = .13585E-2
MEAN_MOTION_DOT = .213709E-2
MEAN_MOTION_DDOT = 0

CCSDS_OMM_VERS = 2.0
CREATION_DATE  = 
ORIGINATOR     = 

OBJECT_NAME    = STARLINK-36973
OBJECT_ID      = 2026-042K
CENTER_NAME    = EARTH
REF_FRAME      = TEME
TIME_SYSTEM    = UTC
MEAN_ELEMENT_THEORY = SGP/SGP4

EPOCH          = 2026-03-25T16:23:54.572064
MEAN_MOTION    = 15.80754682
ECCENTRICITY   = .0000607
INCLINATION    = 53.1578
RA_OF_ASC_NODE = 114.5363
ARG_OF_PERICENTER = 218.7020
MEAN_ANOMALY   = 141.3959

EPHEMERIS_TYPE = 0
CLASSIFICATION_TYPE = U
NORAD_CAT_ID   = 68078
ELEMENT_SET_NO = 999
REV_AT_EPOCH   = 461
BSTAR          = -.27824E-3
MEAN_MOTION_DOT = -.54964E-3
MEAN_MOTION_DDOT = 0

CCSDS_OMM_VERS = 2.0
CREATION_DATE  = 
ORIGINATOR     = 

OBJECT_NAME    = STARLINK-37063
OBJECT_ID      = 2026-042L
CENTER_NAME    = EARTH
REF_FRAME      = TEME
TIME_SYSTEM    = UTC
MEAN_ELEMENT_THEORY = SGP/SGP4

EPOCH          = 2026-03-25T16:24:57.921408
MEAN_MOTION    = 15.80946645
ECCENTRICITY   = .0001603
INCLINATION    = 53.1576
RA_OF_ASC_NODE = 114.5409
ARG_OF_PERICENTER = 71.9222
MEAN_ANOMALY   = 288.1975

EPHEMERIS_TYPE = 0
CLASSIFICATION_TYPE = U
NORAD_CAT_ID   = 68079
ELEMENT_SET_NO = 999
REV_AT_EPOCH   = 461
BSTAR          = .95706E-3
MEAN_MOTION_DOT = .193133E-2
MEAN_MOTION_DDOT = 0

CCSDS_OMM_VERS = 2.0
CREATION_DATE  = 
ORIGINATOR     = 

OBJECT_NAME    = STARLINK-37051
OBJECT_ID      = 2026-042M
CENTER_NAME    = EARTH
REF_FRAME      = TEME
TIME_SYSTEM    = UTC
MEAN_ELEMENT_THEORY = SGP/SGP4

EPOCH          = 2026-03-25T20:00:01.999008
MEAN_MOTION    = 15.75296782
ECCENTRICITY   = .0001147
INCLINATION    = 53.1599
RA_OF_ASC_NODE = 113.8181
ARG_OF_PERICENTER = 89.0629
MEAN_ANOMALY   = 27.9880

EPHEMERIS_TYPE = 0
CLASSIFICATION_TYPE = U
NORAD_CAT_ID   = 68080
ELEMENT_SET_NO = 999
REV_AT_EPOCH   = 464
BSTAR          = -.76354E-3
MEAN_MOTION_DOT = -.116377E-2
MEAN_MOTION_DDOT = 0

CCSDS_OMM_VERS = 2.0
CREATION_DATE  = 
ORIGINATOR     = 

OBJECT_NAME    = STARLINK-37066
OBJECT_ID      = 2026-042N
CENTER_NAME    = EARTH
REF_FRAME      = TEME
TIME_SYSTEM    = UTC
MEAN_ELEMENT_THEORY = SGP/SGP4

EPOCH          = 2026-03-25T20:00:01.999008
MEAN_MOTION    = 15.75271620
ECCENTRICITY   = .0001088
INCLINATION    = 53.1600
RA_OF_ASC_NODE = 113.9739
ARG_OF_PERICENTER = 102.2252
MEAN_ANOMALY   = 299.4527

EPHEMERIS_TYPE = 0
CLASSIFICATION_TYPE = U
NORAD_CAT_ID   = 68081
ELEMENT_SET_NO = 999
REV_AT_EPOCH   = 464
BSTAR          = -.67113E-3
MEAN_MOTION_DOT = -.102424E-2
MEAN_MOTION_DDOT = 0

CCSDS_OMM_VERS = 2.0
CREATION_DATE  = 
ORIGINATOR     = 

OBJECT_NAME    = STARLINK-37054
OBJECT_ID      = 2026-042P
CENTER_NAME    = EARTH
REF_FRAME      = TEME
TIME_SYSTEM    = UTC
MEAN_ELEMENT_THEORY = SGP/SGP4

EPOCH          = 2026-03-25T19:22:42.567168
MEAN_MOTION    = 15.80987275
ECCENTRICITY   = .0001209
INCLINATION    = 53.1574
RA_OF_ASC_NODE = 113.8870
ARG_OF_PERICENTER = 64.6520
MEAN_ANOMALY   = 295.4628

EPHEMERIS_TYPE = 0
CLASSIFICATION_TYPE = U
NORAD_CAT_ID   = 68082
ELEMENT_SET_NO = 999
REV_AT_EPOCH   = 463
BSTAR          = .13846E-2
MEAN_MOTION_DOT = .283207E-2
MEAN_MOTION_DDOT = 0

CCSDS_OMM_VERS = 2.0
CREATION_DATE  = 
ORIGINATOR     = 

OBJECT_NAME    = STARLINK-37065
OBJECT_ID      = 2026-042Q
CENTER_NAME    = EARTH
REF_FRAME      = TEME
TIME_SYSTEM    = UTC
MEAN_ELEMENT_THEORY = SGP/SGP4

EPOCH          = 2026-03-25T13:50:34.300896
MEAN_MOTION    = 15.75322603
ECCENTRICITY   = .0001007
INCLINATION    = 53.1586
RA_OF_ASC_NODE = 115.3017
ARG_OF_PERICENTER = 95.8939
MEAN_ANOMALY   = 264.2196

EPHEMERIS_TYPE = 0
CLASSIFICATION_TYPE = U
NORAD_CAT_ID   = 68083
ELEMENT_SET_NO = 999
REV_AT_EPOCH   = 459
BSTAR          = .12664E-2
MEAN_MOTION_DOT = .198845E-2
MEAN_MOTION_DDOT = 0

CCSDS_OMM_VERS = 2.0
CREATION_DATE  = 
ORIGINATOR     = 

OBJECT_NAME    = STARLINK-37037
OBJECT_ID      = 2026-042R
CENTER_NAME    = EARTH
REF_FRAME      = TEME
TIME_SYSTEM    = UTC
MEAN_ELEMENT_THEORY = SGP/SGP4

EPOCH          = 2026-03-25T20:00:01.999008
MEAN_MOTION    = 15.75272090
ECCENTRICITY   = .000116
INCLINATION    = 53.1596
RA_OF_ASC_NODE = 113.8151
ARG_OF_PERICENTER = 84.3850
MEAN_ANOMALY   = 34.5496

EPHEMERIS_TYPE = 0
CLASSIFICATION_TYPE = U
NORAD_CAT_ID   = 68084
ELEMENT_SET_NO = 999
REV_AT_EPOCH   = 464
BSTAR          = -.70699E-3
MEAN_MOTION_DOT = -.107797E-2
MEAN_MOTION_DDOT = 0

CCSDS_OMM_VERS = 2.0
CREATION_DATE  = 
ORIGINATOR     = 

OBJECT_NAME    = STARLINK-37068
OBJECT_ID      = 2026-042S
CENTER_NAME    = EARTH
REF_FRAME      = TEME
TIME_SYSTEM    = UTC
MEAN_ELEMENT_THEORY = SGP/SGP4

EPOCH          = 2026-03-25T19:19:28.125696
MEAN_MOTION    = 15.81008244
ECCENTRICITY   = .0001063
INCLINATION    = 53.1577
RA_OF_ASC_NODE = 113.8713
ARG_OF_PERICENTER = 101.6453
MEAN_ANOMALY   = 258.4689

EPHEMERIS_TYPE = 0
CLASSIFICATION_TYPE = U
NORAD_CAT_ID   = 68085
ELEMENT_SET_NO = 999
REV_AT_EPOCH   = 463
BSTAR          = .16706E-2
MEAN_MOTION_DOT = .344669E-2
MEAN_MOTION_DDOT = 0

CCSDS_OMM_VERS = 2.0
CREATION_DATE  = 
ORIGINATOR     = 

OBJECT_NAME    = STARLINK-37067
OBJECT_ID      = 2026-042T
CENTER_NAME    = EARTH
REF_FRAME      = TEME
TIME_SYSTEM    = UTC
MEAN_ELEMENT_THEORY = SGP/SGP4

EPOCH          = 2026-03-25T16:16:19.663968
MEAN_MOTION    = 15.80945343
ECCENTRICITY   = .000246
INCLINATION    = 53.1578
RA_OF_ASC_NODE = 114.5000
ARG_OF_PERICENTER = 48.4624
MEAN_ANOMALY   = 311.6609

EPHEMERIS_TYPE = 0
CLASSIFICATION_TYPE = U
NORAD_CAT_ID   = 68086
ELEMENT_SET_NO = 999
REV_AT_EPOCH   = 461
BSTAR          = .10859E-2
MEAN_MOTION_DOT = .219906E-2
MEAN_MOTION_DDOT = 0

CCSDS_OMM_VERS = 2.0
CREATION_DATE  = 
ORIGINATOR     = 

OBJECT_NAME    = STARLINK-37062
OBJECT_ID      = 2026-042U
CENTER_NAME    = EARTH
REF_FRAME      = TEME
TIME_SYSTEM    = UTC
MEAN_ELEMENT_THEORY = SGP/SGP4

EPOCH          = 2026-03-25T19:17:18.791808
MEAN_MOTION    = 15.81018084
ECCENTRICITY   = .0001807
INCLINATION    = 53.1577
RA_OF_ASC_NODE = 113.8615
ARG_OF_PERICENTER = 96.7950
MEAN_ANOMALY   = 263.3278

EPHEMERIS_TYPE = 0
CLASSIFICATION_TYPE = U
NORAD_CAT_ID   = 68087
ELEMENT_SET_NO = 999
REV_AT_EPOCH   = 463
BSTAR          = .18804E-2
MEAN_MOTION_DOT = .390298E-2
MEAN_MOTION_DDOT = 0

